CCSDS_OMM_VERS = 2.0
CREATION_DATE  = 
ORIGINATOR     = 

OBJECT_NAME    = SL-14 R/B
OBJECT_ID      = 1991-042B
CENTER_NAME    = EARTH
REF_FRAME      = TEME
TIME_SYSTEM    = UTC
MEAN_ELEMENT_THEORY = SGP/SGP4

EPOCH          = 2026-02-23T10:36:45.921024
MEAN_MOTION    = 14.81813495
ECCENTRICITY   = .0015605
INCLINATION    = 82.4898
RA_OF_ASC_NODE = 233.5446
ARG_OF_PERICENTER = 289.7664
MEAN_ANOMALY   = 70.1867

EPHEMERIS_TYPE = 0
CLASSIFICATION_TYPE = U
NORAD_CAT_ID   = 21423
ELEMENT_SET_NO = 999
REV_AT_EPOCH   = 85096
BSTAR          = .54916E-4
MEAN_MOTION_DOT = .457E-5
MEAN_MOTION_DDOT = 0

CCSDS_OMM_VERS = 2.0
CREATION_DATE  = 
ORIGINATOR     = 

OBJECT_NAME    = ERS-1
OBJECT_ID      = 1991-050A
CENTER_NAME    = EARTH
REF_FRAME      = TEME
TIME_SYSTEM    = UTC
MEAN_ELEMENT_THEORY = SGP/SGP4

EPOCH          = 2026-02-23T10:44:25.492992
MEAN_MOTION    = 14.39436842
ECCENTRICITY   = .0030985
INCLINATION    = 98.7891
RA_OF_ASC_NODE = 72.3240
ARG_OF_PERICENTER = 243.6355
MEAN_ANOMALY   = 116.1650

EPHEMERIS_TYPE = 0
CLASSIFICATION_TYPE = U
NORAD_CAT_ID   = 21574
ELEMENT_SET_NO = 999
REV_AT_EPOCH   = 81368
BSTAR          = .11263E-3
MEAN_MOTION_DOT = .306E-5
MEAN_MOTION_DDOT = 0

CCSDS_OMM_VERS = 2.0
CREATION_DATE  = 
ORIGINATOR     = 

OBJECT_NAME    = ARIANE 40 R/B
OBJECT_ID      = 1991-050F
CENTER_NAME    = EARTH
REF_FRAME      = TEME
TIME_SYSTEM    = UTC
MEAN_ELEMENT_THEORY = SGP/SGP4

EPOCH          = 2026-02-23T09:26:51.519840
MEAN_MOTION    = 14.42882014
ECCENTRICITY   = .000432
INCLINATION    = 98.2045
RA_OF_ASC_NODE = 107.1646
ARG_OF_PERICENTER = 112.2211
MEAN_ANOMALY   = 247.9439

EPHEMERIS_TYPE = 0
CLASSIFICATION_TYPE = U
NORAD_CAT_ID   = 21610
ELEMENT_SET_NO = 999
REV_AT_EPOCH   = 81693
BSTAR          = .93963E-4
MEAN_MOTION_DOT = .272E-5
MEAN_MOTION_DDOT = 0

CCSDS_OMM_VERS = 2.0
CREATION_DATE  = 
ORIGINATOR     = 

OBJECT_NAME    = INTERCOSMOS 25
OBJECT_ID      = 1991-086A
CENTER_NAME    = EARTH
REF_FRAME      = TEME
TIME_SYSTEM    = UTC
MEAN_ELEMENT_THEORY = SGP/SGP4

EPOCH          = 2026-02-23T10:59:03.758496
MEAN_MOTION    = 12.11954758
ECCENTRICITY   = .1487083
INCLINATION    = 82.6074
RA_OF_ASC_NODE = 318.6088
ARG_OF_PERICENTER = 147.5904
MEAN_ANOMALY   = 222.6028

EPHEMERIS_TYPE = 0
CLASSIFICATION_TYPE = U
NORAD_CAT_ID   = 21819
ELEMENT_SET_NO = 999
REV_AT_EPOCH   = 49496
BSTAR          = .23647E-3
MEAN_MOTION_DOT = .1236E-4
MEAN_MOTION_DDOT = 0

CCSDS_OMM_VERS = 2.0
CREATION_DATE  = 
ORIGINATOR     = 

OBJECT_NAME    = SL-8 R/B
OBJECT_ID      = 1992-008B
CENTER_NAME    = EARTH
REF_FRAME      = TEME
TIME_SYSTEM    = UTC
MEAN_ELEMENT_THEORY = SGP/SGP4

EPOCH          = 2026-02-23T08:19:09.148224
MEAN_MOTION    = 13.75969924
ECCENTRICITY   = .0034756
INCLINATION    = 82.9238
RA_OF_ASC_NODE = 278.4500
ARG_OF_PERICENTER = 172.7396
MEAN_ANOMALY   = 1.2378

EPHEMERIS_TYPE = 0
CLASSIFICATION_TYPE = U
NORAD_CAT_ID   = 21876
ELEMENT_SET_NO = 999
REV_AT_EPOCH   = 70744
BSTAR          = -.53078E-5
MEAN_MOTION_DOT = .1E-6
MEAN_MOTION_DDOT = 0

CCSDS_OMM_VERS = 2.0
CREATION_DATE  = 
ORIGINATOR     = 

OBJECT_NAME    = SL-8 R/B
OBJECT_ID      = 1992-020B
CENTER_NAME    = EARTH
REF_FRAME      = TEME
TIME_SYSTEM    = UTC
MEAN_ELEMENT_THEORY = SGP/SGP4

EPOCH          = 2026-02-23T06:45:00.427680
MEAN_MOTION    = 13.75547624
ECCENTRICITY   = .0028322
INCLINATION    = 82.9344
RA_OF_ASC_NODE = 164.4558
ARG_OF_PERICENTER = 340.4352
MEAN_ANOMALY   = 38.1743

EPHEMERIS_TYPE = 0
CLASSIFICATION_TYPE = U
NORAD_CAT_ID   = 21938
ELEMENT_SET_NO = 999
REV_AT_EPOCH   = 69915
BSTAR          = .84761E-4
MEAN_MOTION_DOT = .97E-6
MEAN_MOTION_DDOT = 0

CCSDS_OMM_VERS = 2.0
CREATION_DATE  = 
ORIGINATOR     = 

OBJECT_NAME    = USA 81
OBJECT_ID      = 1992-023A
CENTER_NAME    = EARTH
REF_FRAME      = TEME
TIME_SYSTEM    = UTC
MEAN_ELEMENT_THEORY = SGP/SGP4

EPOCH          = 2026-02-23T11:27:49.900896
MEAN_MOTION    = 14.32362672
ECCENTRICITY   = .0002729
INCLINATION    = 85.0111
RA_OF_ASC_NODE = 139.6375
ARG_OF_PERICENTER = 89.9218
MEAN_ANOMALY   = 270.2288

EPHEMERIS_TYPE = 0
CLASSIFICATION_TYPE = U
NORAD_CAT_ID   = 21949
ELEMENT_SET_NO = 999
REV_AT_EPOCH   = 9275
BSTAR          = .63424E-4
MEAN_MOTION_DOT = .191E-5
MEAN_MOTION_DDOT = 0

CCSDS_OMM_VERS = 2.0
CREATION_DATE  = 
ORIGINATOR     = 

OBJECT_NAME    = COSMOS 2219
OBJECT_ID      = 1992-076A
CENTER_NAME    = EARTH
REF_FRAME      = TEME
TIME_SYSTEM    = UTC
MEAN_ELEMENT_THEORY = SGP/SGP4

EPOCH          = 2026-02-23T10:39:29.502144
MEAN_MOTION    = 14.14082636
ECCENTRICITY   = .0019667
INCLINATION    = 71.0594
RA_OF_ASC_NODE = 47.8476
ARG_OF_PERICENTER = 226.0843
MEAN_ANOMALY   = 133.8657

EPHEMERIS_TYPE = 0
CLASSIFICATION_TYPE = U
NORAD_CAT_ID   = 22219
ELEMENT_SET_NO = 999
REV_AT_EPOCH   = 71636
BSTAR          = .20748E-3
MEAN_MOTION_DOT = .348E-5
MEAN_MOTION_DDOT = 0

CCSDS_OMM_VERS = 2.0
CREATION_DATE  = 
ORIGINATOR     = 

OBJECT_NAME    = SL-16 R/B
OBJECT_ID      = 1992-076B
CENTER_NAME    = EARTH
REF_FRAME      = TEME
TIME_SYSTEM    = UTC
MEAN_ELEMENT_THEORY = SGP/SGP4

EPOCH          = 2026-02-23T10:17:42.605376
MEAN_MOTION    = 14.16855682
ECCENTRICITY   = .0010958
INCLINATION    = 70.9981
RA_OF_ASC_NODE = 218.4121
ARG_OF_PERICENTER = 122.5435
MEAN_ANOMALY   = 265.6562

EPHEMERIS_TYPE = 0
CLASSIFICATION_TYPE = U
NORAD_CAT_ID   = 22220
ELEMENT_SET_NO = 999
REV_AT_EPOCH   = 71981
BSTAR          = .13245E-3
MEAN_MOTION_DOT = .218E-5
MEAN_MOTION_DDOT = 0

CCSDS_OMM_VERS = 2.0
CREATION_DATE  = 
ORIGINATOR     = 

OBJECT_NAME    = COSMOS 2221
OBJECT_ID      = 1992-080A
CENTER_NAME    = EARTH
REF_FRAME      = TEME
TIME_SYSTEM    = UTC
MEAN_ELEMENT_THEORY = SGP/SGP4

EPOCH          = 2026-02-23T09:24:37.161792
MEAN_MOTION    = 14.96141041
ECCENTRICITY   = .0012978
INCLINATION    = 82.5032
RA_OF_ASC_NODE = 292.7768
ARG_OF_PERICENTER = 238.3932
MEAN_ANOMALY   = 121.6024

EPHEMERIS_TYPE = 0
CLASSIFICATION_TYPE = U
NORAD_CAT_ID   = 22236
ELEMENT_SET_NO = 999
REV_AT_EPOCH   = 77865
BSTAR          = .15583E-3
MEAN_MOTION_DOT = .1782E-4
MEAN_MOTION_DDOT = 0

CCSDS_OMM_VERS = 2.0
CREATION_DATE  = 
ORIGINATOR     = 

OBJECT_NAME    = SL-16 R/B
OBJECT_ID      = 1992-093B
CENTER_NAME    = EARTH
REF_FRAME      = TEME
TIME_SYSTEM    = UTC
MEAN_ELEMENT_THEORY = SGP/SGP4

EPOCH          = 2026-02-23T06:03:04.330080
MEAN_MOTION    = 14.15448168
ECCENTRICITY   = .0005844
INCLINATION    = 71.0223
RA_OF_ASC_NODE = 34.5728
ARG_OF_PERICENTER = 309.2884
MEAN_ANOMALY   = 50.7720

EPHEMERIS_TYPE = 0
CLASSIFICATION_TYPE = U
NORAD_CAT_ID   = 22285
ELEMENT_SET_NO = 999
REV_AT_EPOCH   = 71111
BSTAR          = .13514E-3
MEAN_MOTION_DOT = .216E-5
MEAN_MOTION_DDOT = 0

CCSDS_OMM_VERS = 2.0
CREATION_DATE  = 
ORIGINATOR     = 

OBJECT_NAME    = COSMOS 2228
OBJECT_ID      = 1992-094A
CENTER_NAME    = EARTH
REF_FRAME      = TEME
TIME_SYSTEM    = UTC
MEAN_ELEMENT_THEORY = SGP/SGP4

EPOCH          = 2026-02-23T11:37:57.427680
MEAN_MOTION    = 14.97114022
ECCENTRICITY   = .0017863
INCLINATION    = 82.5147
RA_OF_ASC_NODE = 250.9138
ARG_OF_PERICENTER = 354.5546
MEAN_ANOMALY   = 5.5479

EPHEMERIS_TYPE = 0
CLASSIFICATION_TYPE = U
NORAD_CAT_ID   = 22286
ELEMENT_SET_NO = 999
REV_AT_EPOCH   = 77393
BSTAR          = .21358E-3
MEAN_MOTION_DOT = .2497E-4
MEAN_MOTION_DDOT = 0

