SL-14 R/B               
1 21423U 91042B   26054.44219816  .00000457  00000+0  54916-4 0  9994
2 21423  82.4898 233.5446 0015605 289.7664  70.1867 14.81813495850960
ERS-1                   
1 21574U 91050A   26054.44751728  .00000306  00000+0  11263-3 0  9993
2 21574  98.7891  72.3240 0030985 243.6355 116.1650 14.39436842813684
ARIANE 40 R/B           
1 21610U 91050F   26054.39365185  .00000272  00000+0  93963-4 0  9996
2 21610  98.2045 107.1646 0004320 112.2211 247.9439 14.42882014816933
INTERCOSMOS 25          
1 21819U 91086A   26054.45768239  .00001236  00000+0  23647-3 0  9992
2 21819  82.6074 318.6088 1487083 147.5904 222.6028 12.11954758494962
SL-8 R/B                
1 21876U 92008B   26054.34663366  .00000010  00000+0 -53078-5 0  9996
2 21876  82.9238 278.4500 0034756 172.7396   1.2378 13.75969924707442
SL-8 R/B                
1 21938U 92020B   26054.28125495  .00000097  00000+0  84761-4 0  9994
2 21938  82.9344 164.4558 0028322 340.4352  38.1743 13.75547624699156
USA 81                  
1 21949U 92023A   26054.47766089  .00000191  00000+0  63424-4 0  9998
2 21949  85.0111 139.6375 0002729  89.9218 270.2288 14.32362672 92752
COSMOS 2219             
1 22219U 92076A   26054.44409146  .00000348  00000+0  20748-3 0  9997
2 22219  71.0594  47.8476 0019667 226.0843 133.8657 14.14082636716365
SL-16 R/B               
1 22220U 92076B   26054.42896534  .00000218  00000+0  13245-3 0  9998
2 22220  70.9981 218.4121 0010958 122.5435 265.6562 14.16855682719812
COSMOS 2221             
1 22236U 92080A   26054.39209678  .00001782  00000+0  15583-3 0  9997
2 22236  82.5032 292.7768 0012978 238.3932 121.6024 14.96141041778655
SL-16 R/B               
1 22285U 92093B   26054.25213345  .00000216  00000+0  13514-3 0  9999
2 22285  71.0223  34.5728 0005844 309.2884  50.7720 14.15448168711114
COSMOS 2228             
1 22286U 92094A   26054.48469245  .00002497  00000+0  21358-3 0  9996
2 22286  82.5147 250.9138 0017863 354.5546   5.5479 14.97114022773934
